[{"OBJECT_NAME":"LEMUR-1","OBJECT_ID":"2014-033AL","EPOCH":"2026-03-03T20:13:53.351904","MEAN_MOTION":14.84762727,"ECCENTRICITY":0.00498022,"INCLINATION":97.7702,"RA_OF_ASC_NODE":215.1128,"ARG_OF_PERICENTER":64.6774,"MEAN_ANOMALY":295.9588,"EPHEMERIS_TYPE":0,"CLASSIFICATION_TYPE":"U","NORAD_CAT_ID":40044,"ELEMENT_SET_NO":999,"REV_AT_EPOCH":62983,"BSTAR":0.00044815504,"MEAN_MOTION_DOT":3.831e-5,"MEAN_MOTION_DDOT":0},{"OBJECT_NAME":"LEMUR-2-GREENBERG","OBJECT_ID":"2017-042N","EPOCH":"2026-03-03T12:02:54.215232","MEAN_MOTION":15.27683252,"ECCENTRICITY":0.00095208,"INCLINATION":97.3762,"RA_OF_ASC_NODE":243.9025,"ARG_OF_PERICENTER":24.9743,"MEAN_ANOMALY":335.1955,"EPHEMERIS_TYPE":0,"CLASSIFICATION_TYPE":"U","NORAD_CAT_ID":42837,"ELEMENT_SET_NO":999,"REV_AT_EPOCH":47223,"BSTAR":0.00078816216,"MEAN_MOTION_DOT":0.00021315,"MEAN_MOTION_DDOT":0},{"OBJECT_NAME":"LEMUR-2-ANDIS","OBJECT_ID":"2017-042P","EPOCH":"2026-03-03T22:28:18.384096","MEAN_MOTION":15.30228421,"ECCENTRICITY":0.00093981,"INCLINATION":97.3649,"RA_OF_ASC_NODE":244.2171,"ARG_OF_PERICENTER":23.7111,"MEAN_ANOMALY":336.4561,"EPHEMERIS_TYPE":0,"CLASSIFICATION_TYPE":"U","NORAD_CAT_ID":42838,"ELEMENT_SET_NO":999,"REV_AT_EPOCH":47233,"BSTAR":0.0010969093,"MEAN_MOTION_DOT":0.00032145,"MEAN_MOTION_DDOT":0},{"OBJECT_NAME":"LEMUR-2-MONSON","OBJECT_ID":"2017-042Q","EPOCH":"2026-03-03T13:20:38.573664","MEAN_MOTION":15.24736791,"ECCENTRICITY":0.000694,"INCLINATION":97.4019,"RA_OF_ASC_NODE":244.0648,"ARG_OF_PERICENTER":14.2534,"MEAN_ANOMALY":345.8898,"EPHEMERIS_TYPE":0,"CLASSIFICATION_TYPE":"U","NORAD_CAT_ID":42839,"ELEMENT_SET_NO":999,"REV_AT_EPOCH":47205,"BSTAR":0.000829,"MEAN_MOTION_DOT":0.00020504,"MEAN_MOTION_DDOT":0},{"OBJECT_NAME":"LEMUR-2-FURIAUS","OBJECT_ID":"2017-042R","EPOCH":"2026-03-03T22:17:51.652320","MEAN_MOTION":15.25897016,"ECCENTRICITY":0.00075705,"INCLINATION":97.3734,"RA_OF_ASC_NODE":242.5471,"ARG_OF_PERICENTER":77.7896,"MEAN_ANOMALY":282.4189,"EPHEMERIS_TYPE":0,"CLASSIFICATION_TYPE":"U","NORAD_CAT_ID":42840,"ELEMENT_SET_NO":999,"REV_AT_EPOCH":47213,"BSTAR":0.0013140723,"MEAN_MOTION_DOT":0.00033757,"MEAN_MOTION_DDOT":0},{"OBJECT_NAME":"LEMUR-2-PETERG","OBJECT_ID":"2017-042S","EPOCH":"2026-03-03T22:06:37.621728","MEAN_MOTION":15.29320384,"ECCENTRICITY":0.00039132,"INCLINATION":97.3964,"RA_OF_ASC_NODE":248.1268,"ARG_OF_PERICENTER":1.4951,"MEAN_ANOMALY":358.63,"EPHEMERIS_TYPE":0,"CLASSIFICATION_TYPE":"U","NORAD_CAT_ID":42841,"ELEMENT_SET_NO":999,"REV_AT_EPOCH":47232,"BSTAR":0.0010322085,"MEAN_MOTION_DOT":0.00029369,"MEAN_MOTION_DDOT":0},{"OBJECT_NAME":"LEMUR-2-DEMBITZ","OBJECT_ID":"2017-042T","EPOCH":"2026-03-03T10:41:20.013792","MEAN_MOTION":15.26651527,"ECCENTRICITY":0.00072672,"INCLINATION":97.3793,"RA_OF_ASC_NODE":244.9641,"ARG_OF_PERICENTER":37.6449,"MEAN_ANOMALY":322.5297,"EPHEMERIS_TYPE":0,"CLASSIFICATION_TYPE":"U","NORAD_CAT_ID":42842,"ELEMENT_SET_NO":999,"REV_AT_EPOCH":47219,"BSTAR":0.00086975355,"MEAN_MOTION_DOT":0.00022797,"MEAN_MOTION_DDOT":0},{"OBJECT_NAME":"LEMUR-2-ZACHARY","OBJECT_ID":"2017-042W","EPOCH":"2026-03-03T22:34:46.587072","MEAN_MOTION":15.41446326,"ECCENTRICITY":0.00037091,"INCLINATION":97.365,"RA_OF_ASC_NODE":252.9815,"ARG_OF_PERICENTER":38.5404,"MEAN_ANOMALY":321.6107,"EPHEMERIS_TYPE":0,"CLASSIFICATION_TYPE":"U","NORAD_CAT_ID":42845,"ELEMENT_SET_NO":999,"REV_AT_EPOCH":47294,"BSTAR":0.0014706892,"MEAN_MOTION_DOT":0.00061885,"MEAN_MOTION_DDOT":0},{"OBJECT_NAME":"LEMUR-2-JIN-LUEN","OBJECT_ID":"2018-014C","EPOCH":"2026-03-03T18:20:33.271872","MEAN_MOTION":15.76091353,"ECCENTRICITY":0.00017957,"INCLINATION":97.5453,"RA_OF_ASC_NODE":352.5018,"ARG_OF_PERICENTER":110.916,"MEAN_ANOMALY":249.2297,"EPHEMERIS_TYPE":0,"CLASSIFICATION_TYPE":"U","NORAD_CAT_ID":43182,"ELEMENT_SET_NO":999,"REV_AT_EPOCH":44453,"BSTAR":0.0015420229,"MEAN_MOTION_DOT":0.00246083,"MEAN_MOTION_DDOT":0},{"OBJECT_NAME":"LEMUR-2-KADI","OBJECT_ID":"2018-014E","EPOCH":"2026-03-03T18:44:14.060256","MEAN_MOTION":15.62818157,"ECCENTRICITY":9.831e-5,"INCLINATION":97.4721,"RA_OF_ASC_NODE":347.1131,"ARG_OF_PERICENTER":51.5673,"MEAN_ANOMALY":308.5673,"EPHEMERIS_TYPE":0,"CLASSIFICATION_TYPE":"U","NORAD_CAT_ID":43184,"ELEMENT_SET_NO":999,"REV_AT_EPOCH":44446,"BSTAR":0.0012509337,"MEAN_MOTION_DOT":0.00113858,"MEAN_MOTION_DDOT":0},{"OBJECT_NAME":"LEMUR-2-AMANDA-SVANTE","OBJECT_ID":"2021-034B","EPOCH":"2026-03-03T18:03:40.760640","MEAN_MOTION":15.28030596,"ECCENTRICITY":0.00021215,"INCLINATION":97.5846,"RA_OF_ASC_NODE":138.7302,"ARG_OF_PERICENTER":224.4543,"MEAN_ANOMALY":135.6526,"EPHEMERIS_TYPE":0,"CLASSIFICATION_TYPE":"U","NORAD_CAT_ID":48269,"ELEMENT_SET_NO":999,"REV_AT_EPOCH":26492,"BSTAR":0.0013403851,"MEAN_MOTION_DOT":0.00036715,"MEAN_MOTION_DDOT":0},{"OBJECT_NAME":"LEMUR-2-SPECIAL-K","OBJECT_ID":"2021-034F","EPOCH":"2026-03-03T18:10:29.536320","MEAN_MOTION":15.44342263,"ECCENTRICITY":0.00014403,"INCLINATION":97.5729,"RA_OF_ASC_NODE":143.8173,"ARG_OF_PERICENTER":223.4437,"MEAN_ANOMALY":136.6697,"EPHEMERIS_TYPE":0,"CLASSIFICATION_TYPE":"U","NORAD_CAT_ID":48273,"ELEMENT_SET_NO":999,"REV_AT_EPOCH":26532,"BSTAR":0.001859169,"MEAN_MOTION_DOT":0.00086475,"MEAN_MOTION_DDOT":0},{"OBJECT_NAME":"LEMUR-2-EMBRIONOVIS","OBJECT_ID":"2023-084AQ","EPOCH":"2026-03-03T19:15:38.547936","MEAN_MOTION":15.34518682,"ECCENTRICITY":0.00086057,"INCLINATION":97.6119,"RA_OF_ASC_NODE":203.2954,"ARG_OF_PERICENTER":335.5796,"MEAN_ANOMALY":24.5037,"EPHEMERIS_TYPE":0,"CLASSIFICATION_TYPE":"U","NORAD_CAT_ID":56970,"ELEMENT_SET_NO":999,"REV_AT_EPOCH":15150,"BSTAR":0.00033362952,"MEAN_MOTION_DOT":0.00011089,"MEAN_MOTION_DDOT":0},{"OBJECT_NAME":"LEMUR-2-MANO","OBJECT_ID":"2023-100E","EPOCH":"2026-03-03T14:33:26.925696","MEAN_MOTION":15.58879848,"ECCENTRICITY":0.0002403,"INCLINATION":99.4553,"RA_OF_ASC_NODE":83.1322,"ARG_OF_PERICENTER":57.046,"MEAN_ANOMALY":303.102,"EPHEMERIS_TYPE":0,"CLASSIFICATION_TYPE":"U","NORAD_CAT_ID":57390,"ELEMENT_SET_NO":999,"REV_AT_EPOCH":14553,"BSTAR":0.0019742,"MEAN_MOTION_DOT":0.00155538,"MEAN_MOTION_DDOT":0},{"OBJECT_NAME":"LEMUR-2-DEVERILL-M-T","OBJECT_ID":"2023-100F","EPOCH":"2026-03-03T12:30:15.087744","MEAN_MOTION":15.34317768,"ECCENTRICITY":0.00087,"INCLINATION":99.4572,"RA_OF_ASC_NODE":71.2312,"ARG_OF_PERICENTER":46.5642,"MEAN_ANOMALY":313.6316,"EPHEMERIS_TYPE":0,"CLASSIFICATION_TYPE":"U","NORAD_CAT_ID":57391,"ELEMENT_SET_NO":999,"REV_AT_EPOCH":14501,"BSTAR":0.0010212,"MEAN_MOTION_DOT":0.00033983,"MEAN_MOTION_DDOT":0},{"OBJECT_NAME":"LEMUR-2-BASS","OBJECT_ID":"2023-174D","EPOCH":"2026-03-03T18:44:04.997760","MEAN_MOTION":15.39499792,"ECCENTRICITY":0.00079961,"INCLINATION":97.3896,"RA_OF_ASC_NODE":146.2896,"ARG_OF_PERICENTER":182.2361,"MEAN_ANOMALY":177.885,"EPHEMERIS_TYPE":0,"CLASSIFICATION_TYPE":"U","NORAD_CAT_ID":58259,"ELEMENT_SET_NO":999,"REV_AT_EPOCH":12912,"BSTAR":0.00059823657,"MEAN_MOTION_DOT":0.00023463,"MEAN_MOTION_DDOT":0}]
